     3.02           N: GNSS NAV DATA    G: GPS              RINEX VERSION / TYPE
GNSS-SDR            UNKNOWN USER        20210821 153128 UTC PGM / RUN BY / DATE 
GPS NAVIGATION MESSAGE FILE GENERATED BY GNSS-SDR           COMMENT             
GNSS-SDR VERSION 0.0.14.git-next-f767f792b                  COMMENT             
See https://gnss-sdr.org                                    COMMENT             
GPSA    .1211D-07   .1490D-07  -.5960D-07  -.1192D-06       IONOSPHERIC CORR    
GPSB    .9626D+05   .8192D+05  -.1966D+06  -.3932D+06       IONOSPHERIC CORR    
GPUT   .9313225746D-09 -.710542736D-14  61440 1706          TIME SYSTEM CORR    
    16    16   158     7                                    LEAP SECONDS        
                                                            END OF HEADER       
G03 2012 09 14 14 00 00  .101522076875D-03  .511590769747D-11  .000000000000D+00
      .380000000000D+02 -.912500000000D+02  .565380693232D-08 -.108693942853D+00
     -.459328293800D-05  .158267392544D-01  .530853867531D-05  .515373713684D+04
      .482400000000D+06 -.117346644402D-06  .198681761424D+01  .173225998878D-06
      .931920543306D+00  .260656250000D+03  .123264702744D+01 -.909180728170D-08
     -.529664919813D-09  .100000000000D+01  .170500000000D+04  .100000000000D+01
      .000000000000D+00  .000000000000D+00 -.465661287308D-08  .380000000000D+02
      .477918000000D+06  .000000000000D+00                                      
G06 2012 09 14 14 00 00 -.300505198538D-04 -.852651282912D-11  .000000000000D+00
      .121000000000D+03 -.101906250000D+03  .532415034366D-08  .176282443397D+01
     -.506453216076D-05  .733460392803D-02  .592879951000D-05  .515368734741D+04
      .482400000000D+06  .130385160446D-06  .206433768861D+01  .819563865662D-07
      .938773840521D+00  .249125000000D+03 -.445158728614D+00 -.860285834358D-08
     -.666813489744D-09  .100000000000D+01  .170500000000D+04  .100000000000D+01
      .000000000000D+00  .000000000000D+00 -.512227416039D-08  .121000000000D+03
      .477918000000D+06  .000000000000D+00                                      
G10 2012 09 14 14 00 00 -.517414882779D-04 -.136424205266D-11  .000000000000D+00
      .590000000000D+02  .528750000000D+02  .522521765129D-08  .212137332719D+01
      .258907675743D-05  .115973213688D-01  .443309545517D-05  .515371631241D+04
      .482400000000D+06 -.214204192162D-06 -.204624828085D+01 -.152736902237D-06
      .944935069230D+00  .286562500000D+03  .757963558876D+00 -.855821362681D-08
      .357514891930D-09  .100000000000D+01  .170500000000D+04  .100000000000D+01
      .000000000000D+00  .000000000000D+00 -.232830643654D-08  .590000000000D+02
      .477918000000D+06  .000000000000D+00                                      
G16 2012 09 14 14 00 00 -.246000941843D-03 -.795807864051D-12  .000000000000D+00
      .340000000000D+02  .502812500000D+02  .468412368398D-08  .205287841431D+01
      .276416540146D-05  .652542547323D-02  .326149165630D-05  .515373822594D+04
      .482400000000D+06 -.447034835815D-07  .112079425239D+01  .156462192535D-06
      .981642943220D+00  .328812500000D+03  .311903233850D-01 -.836784855448D-08
      .231438211759D-09  .100000000000D+01  .170500000000D+04  .100000000000D+01
      .000000000000D+00  .000000000000D+00 -.977888703346D-08  .340000000000D+02
      .477918000000D+06  .000000000000D+00                                      
G19 2012 09 14 14 00 00 -.303776934743D-03 -.352429196937D-11  .000000000000D+00
      .118000000000D+03 -.108437500000D+03  .474091176372D-08  .316241078539D+00
     -.563450157642D-05  .860116560943D-02  .765547156334D-05  .515362055016D+04
      .482400000000D+06  .139698386192D-06  .221347332883D+01  .819563865662D-07
      .960899348561D+00  .227343750000D+03  .247487150159D+00 -.837749181330D-08
     -.631454874059D-09  .100000000000D+01  .170500000000D+04  .100000000000D+01
      .000000000000D+00  .000000000000D+00 -.149011611938D-07  .118000000000D+03
      .477918000000D+06  .000000000000D+00                                      
